{"type": "FeatureCollection", "features": [ {"type": "Feature", "properties": {"norad_id": 35043, "name": "COSMOS 2251 DEB", "group": "cosmos-2251-debris", "lat": 49.95079793124315, "lon": 59.921719541524745, "alt_km": 698.2209081433575, "timestamp": "2025-12-15T14:57:58.207583+00:00", "meta": {"OBJECT_NAME": "COSMOS 2251 DEB", "OBJECT_ID": "1993-036AHG", "EPOCH": "2025-12-12T10:19:31.767456", "MEAN_MOTION": 14.76940501, "ECCENTRICITY": 0.00964725, "INCLINATION": 73.9505, "RA_OF_ASC_NODE": 46.1859, "ARG_OF_PERICENTER": 255.5688, "MEAN_ANOMALY": 103.4766, "EPHEMERIS_TYPE": 0, "CLASSIFICATION_TYPE": "U", "NORAD_CAT_ID": 35043, "ELEMENT_SET_NO": 999, "REV_AT_EPOCH": 67414, "BSTAR": 0.0053994821, "MEAN_MOTION_DOT": 0.00041249, "MEAN_MOTION_DDOT": 0}, "tle": {"line1": "1 35043U 93036AHG 25346.43022879  .00041249  00000+0  53995-2 0  9993", "line2": "2 35043  73.9505  46.1859 0096472 255.5688 103.4766 14.76940501674142"}}, "geometry": {"type": "Point", "coordinates": [59.921719541524745, 49.95079793124315]}}, {"type": "Feature", "properties": {"norad_id": 35045, "name": "COSMOS 2251 DEB", "group": "cosmos-2251-debris", "lat": 17.19030101785228, "lon": -137.57563572720838, "alt_km": 971.7979343401721, "timestamp": "2025-12-15T14:57:58.207592+00:00", "meta": {"OBJECT_NAME": "COSMOS 2251 DEB", "OBJECT_ID": "1993-036AHJ", "EPOCH": "2025-12-14T21:02:00.218688", "MEAN_MOTION": 14.00389392, "ECCENTRICITY": 0.0183712, "INCLINATION": 73.7198, "RA_OF_ASC_NODE": 48.9303, "ARG_OF_PERICENTER": 290.6406, "MEAN_ANOMALY": 67.511, "EPHEMERIS_TYPE": 0, "CLASSIFICATION_TYPE": "U", "NORAD_CAT_ID": 35045, "ELEMENT_SET_NO": 999, "REV_AT_EPOCH": 84673, "BSTAR": 0.00066801322, "MEAN_MOTION_DOT": 1.118e-05, "MEAN_MOTION_DDOT": 0}, "tle": {"line1": "1 35045U 93036AHJ 25348.87639142  .00001118  00000+0  66801-3 0  9994", "line2": "2 35045  73.7198  48.9303 0183712 290.6406  67.5110 14.00389392846737"}}, "geometry": {"type": "Point", "coordinates": [-137.57563572720838, 17.19030101785228]}}, {"type": "Feature", "properties": {"norad_id": 35060, "name": "COSMOS 2251 DEB", "group": "cosmos-2251-debris", "lat": 39.984496095342934, "lon": 45.098742876848, "alt_km": 762.8597052319692, "timestamp": "2025-12-15T14:57:58.207600+00:00", "meta": {"OBJECT_NAME": "COSMOS 2251 DEB", "OBJECT_ID": "1993-036AHP", "EPOCH": "2025-12-12T09:42:56.373696", "MEAN_MOTION": 14.4159863, "ECCENTRICITY": 0.00185395, "INCLINATION": 74.0367, "RA_OF_ASC_NODE": 244.9485, "ARG_OF_PERICENTER": 331.3845, "MEAN_ANOMALY": 28.6291, "EPHEMERIS_TYPE": 0, "CLASSIFICATION_TYPE": "U", "NORAD_CAT_ID": 35060, "ELEMENT_SET_NO": 999, "REV_AT_EPOCH": 87237, "BSTAR": 0.00047553365, "MEAN_MOTION_DOT": 1.524e-05, "MEAN_MOTION_DDOT": 0}, "tle": {"line1": "1 35060U 93036AHP 25346.40481914  .00001524  00000+0  47553-3 0  9994", "line2": "2 35060  74.0367 244.9485 0018539 331.3845  28.6291 14.41598630872378"}}, "geometry": {"type": "Point", "coordinates": [45.098742876848, 39.984496095342934]}}, {"type": "Feature", "properties": {"norad_id": 35061, "name": "COSMOS 2251 DEB", "group": "cosmos-2251-debris", "lat": -61.58466077280972, "lon": -91.76546733282409, "alt_km": 686.8969300602839, "timestamp": "2025-12-15T14:57:58.207609+00:00", "meta": {"OBJECT_NAME": "COSMOS 2251 DEB", "OBJECT_ID": "1993-036AHQ", "EPOCH": "2025-12-14T14:43:52.104864", "MEAN_MOTION": 14.67848035, "ECCENTRICITY": 0.00391853, "INCLINATION": 74.0457, "RA_OF_ASC_NODE": 302.1042, "ARG_OF_PERICENTER": 52.4122, "MEAN_ANOMALY": 308.0595, "EPHEMERIS_TYPE": 0, "CLASSIFICATION_TYPE": "U", "NORAD_CAT_ID": 35061, "ELEMENT_SET_NO": 999, "REV_AT_EPOCH": 88602, "BSTAR": 0.00073288142, "MEAN_MOTION_DOT": 4.205e-05, "MEAN_MOTION_DDOT": 0}, "tle": {"line1": "1 35061U 93036AHQ 25348.61379751  .00004205  00000+0  73288-3 0  9998", "line2": "2 35061  74.0457 302.1042 0039185  52.4122 308.0595 14.67848035886028"}}, "geometry": {"type": "Point", "coordinates": [-91.76546733282409, -61.58466077280972]}}, {"type": "Feature", "properties": {"norad_id": 35062, "name": "COSMOS 2251 DEB", "group": "cosmos-2251-debris", "lat": -61.158469226164335, "lon": -60.70141073911714, "alt_km": 907.2685448071607, "timestamp": "2025-12-15T14:57:58.207618+00:00", "meta": {"OBJECT_NAME": "COSMOS 2251 DEB", "OBJECT_ID": "1993-036AHR", "EPOCH": "2025-12-10T15:42:45.436320", "MEAN_MOTION": 14.22906612, "ECCENTRICITY": 0.01275957, "INCLINATION": 74.0784, "RA_OF_ASC_NODE": 96.9836, "ARG_OF_PERICENTER": 97.3041, "MEAN_ANOMALY": 264.2628, "EPHEMERIS_TYPE": 0, "CLASSIFICATION_TYPE": "U", "NORAD_CAT_ID": 35062, "ELEMENT_SET_NO": 999, "REV_AT_EPOCH": 85469, "BSTAR": 0.0028656551, "MEAN_MOTION_DOT": 6.986e-05, "MEAN_MOTION_DDOT": 0}, "tle": {"line1": "1 35062U 93036AHR 25344.65469255  .00006986  00000+0  28657-2 0  9995", "line2": "2 35062  74.0784  96.9836 0127595  97.3041 264.2628 14.22906612854697"}}, "geometry": {"type": "Point", "coordinates": [-60.70141073911714, -61.158469226164335]}}, {"type": "Feature", "properties": {"norad_id": 35065, "name": "COSMOS 2251 DEB", "group": "cosmos-2251-debris", "lat": 11.126498817259183, "lon": 5.722657796950264, "alt_km": 752.2881570671689, "timestamp": "2025-12-15T14:57:58.207627+00:00", "meta": {"OBJECT_NAME": "COSMOS 2251 DEB", "OBJECT_ID": "1993-036AHU", "EPOCH": "2025-12-14T19:55:15.248640", "MEAN_MOTION": 14.45732908, "ECCENTRICITY": 0.00199079, "INCLINATION": 74.0193, "RA_OF_ASC_NODE": 190.4344, "ARG_OF_PERICENTER": 315.0769, "MEAN_ANOMALY": 44.8777, "EPHEMERIS_TYPE": 0, "CLASSIFICATION_TYPE": "U", "NORAD_CAT_ID": 35065, "ELEMENT_SET_NO": 999, "REV_AT_EPOCH": 68381, "BSTAR": 0.0004082557, "MEAN_MOTION_DOT": 1.423e-05, "MEAN_MOTION_DDOT": 0}, "tle": {"line1": "1 35065U 93036AHU 25348.83003760  .00001423  00000+0  40826-3 0  9991", "line2": "2 35065  74.0193 190.4344 0019907 315.0769  44.8777 14.45732908683813"}}, "geometry": {"type": "Point", "coordinates": [5.722657796950264, 11.126498817259183]}}, {"type": "Feature", "properties": {"norad_id": 35071, "name": "COSMOS 2251 DEB", "group": "cosmos-2251-debris", "lat": -73.62089326939216, "lon": 66.22797032272378, "alt_km": 606.3215845893437, "timestamp": "2025-12-15T14:57:58.207652+00:00", "meta": {"OBJECT_NAME": "COSMOS 2251 DEB", "OBJECT_ID": "1993-036AJA", "EPOCH": "2025-12-14T18:37:17.467104", "MEAN_MOTION": 15.03505592, "ECCENTRICITY": 0.00682979, "INCLINATION": 73.9312, "RA_OF_ASC_NODE": 169.2494, "ARG_OF_PERICENTER": 65.107, "MEAN_ANOMALY": 295.7197, "EPHEMERIS_TYPE": 0, "CLASSIFICATION_TYPE": "U", "NORAD_CAT_ID": 35071, "ELEMENT_SET_NO": 999, "REV_AT_EPOCH": 67567, "BSTAR": 0.000606876, "MEAN_MOTION_DOT": 8.679e-05, "MEAN_MOTION_DDOT": 0}, "tle": {"line1": "1 35071U 93036AJA 25348.77589661  .00008679  00000+0  60688-3 0  9998", "line2": "2 35071  73.9312 169.2494 0068297  65.1070 295.7197 15.03505592675675"}}, "geometry": {"type": "Point", "coordinates": [66.22797032272378, -73.62089326939216]}}, {"type": "Feature", "properties": {"norad_id": 35073, "name": "COSMOS 2251 DEB", "group": "cosmos-2251-debris", "lat": -13.358245217300428, "lon": -39.209214830001976, "alt_km": 567.0556859712187, "timestamp": "2025-12-15T14:57:58.207668+00:00", "meta": {"OBJECT_NAME": "COSMOS 2251 DEB", "OBJECT_ID": "1993-036AJC", "EPOCH": "2025-12-14T05:25:56.768736", "MEAN_MOTION": 15.00781687, "ECCENTRICITY": 0.00108644, "INCLINATION": 74.0011, "RA_OF_ASC_NODE": 327.5457, "ARG_OF_PERICENTER": 69.4063, "MEAN_ANOMALY": 290.8289, "EPHEMERIS_TYPE": 0, "CLASSIFICATION_TYPE": "U", "NORAD_CAT_ID": 35073, "ELEMENT_SET_NO": 999, "REV_AT_EPOCH": 67501, "BSTAR": 0.0032108046, "MEAN_MOTION_DOT": 0.00041015, "MEAN_MOTION_DDOT": 0}, "tle": {"line1": "1 35073U 93036AJC 25348.22635149  .00041015  00000+0  32108-2 0  9999", "line2": "2 35073  74.0011 327.5457 0010864  69.4063 290.8289 15.00781687675013"}}, "geometry": {"type": "Point", "coordinates": [-39.209214830001976, -13.358245217300428]}}, {"type": "Feature", "properties": {"norad_id": 35284, "name": "COSMOS 2251 DEB", "group": "cosmos-2251-debris", "lat": 32.59082228070732, "lon": 68.57887795559125, "alt_km": 773.6351413742823, "timestamp": "2025-12-15T14:57:58.207680+00:00", "meta": {"OBJECT_NAME": "COSMOS 2251 DEB", "OBJECT_ID": "1993-036AJN", "EPOCH": "2025-12-14T18:24:04.804128", "MEAN_MOTION": 14.38320511, "ECCENTRICITY": 0.00168739, "INCLINATION": 74.0491, "RA_OF_ASC_NODE": 260.6913, "ARG_OF_PERICENTER": 336.9489, "MEAN_ANOMALY": 53.8225, "EPHEMERIS_TYPE": 0, "CLASSIFICATION_TYPE": "U", "NORAD_CAT_ID": 35284, "ELEMENT_SET_NO": 999, "REV_AT_EPOCH": 65555, "BSTAR": 0.00019800835, "MEAN_MOTION_DOT": 5.77e-06, "MEAN_MOTION_DDOT": 0}, "tle": {"line1": "1 35284U 93036AJN 25348.76672227  .00000577  00000+0  19801-3 0  9994", "line2": "2 35284  74.0491 260.6913 0016873 336.9489  53.8225 14.38320511655552"}}, "geometry": {"type": "Point", "coordinates": [68.57887795559125, 32.59082228070732]}}, {"type": "Feature", "properties": {"norad_id": 35287, "name": "COSMOS 2251 DEB", "group": "cosmos-2251-debris", "lat": -55.42805956535822, "lon": -113.71447778226369, "alt_km": 771.9738691024631, "timestamp": "2025-12-15T14:57:58.207689+00:00", "meta": {"OBJECT_NAME": "COSMOS 2251 DEB", "OBJECT_ID": "1993-036AJR", "EPOCH": "2025-12-13T13:54:56.079936", "MEAN_MOTION": 14.36377385, "ECCENTRICITY": 0.0017611, "INCLINATION": 74.0306, "RA_OF_ASC_NODE": 274.592, "ARG_OF_PERICENTER": 11.0911, "MEAN_ANOMALY": 166.1973, "EPHEMERIS_TYPE": 0, "CLASSIFICATION_TYPE": "U", "NORAD_CAT_ID": 35287, "ELEMENT_SET_NO": 999, "REV_AT_EPOCH": 86904, "BSTAR": 0.00020835611, "MEAN_MOTION_DOT": 5.85e-06, "MEAN_MOTION_DDOT": 0}, "tle": {"line1": "1 35287U 93036AJR 25347.57981574  .00000585  00000+0  20836-3 0  9992", "line2": "2 35287  74.0306 274.5920 0017611  11.0911 166.1973 14.36377385869042"}}, "geometry": {"type": "Point", "coordinates": [-113.71447778226369, -55.42805956535822]}}]}